0 IRIDIUM 33 DEB
1 35925U 97051UJ  13282.29593460  .00004472  00000-0  13365-2 0  4150
2 35925 086.3352 118.7109 0027072 250.0819 109.6605 14.42562995231676
0 IRIDIUM 33 DEB
1 35925U 97051UJ  13282.85087259  .00004444  00000-0  13275-2 0  4166
2 35925 086.3389 118.4772 0028359 242.6884 117.1652 14.42567412231751
0 IRIDIUM 33 DEB
1 35925U 97051UJ  13285.27862984  .00005581  00000-0  16675-2 0  4172
2 35925 086.3352 117.4228 0026978 239.8138 120.3398 14.42611068232101
0 IRIDIUM 33 DEB
1 35925U 97051UJ  13287.29008429  .00005828  00000-0  17405-2 0  4189
2 35925 086.3393 116.5625 0027068 230.3884 129.5597 14.42637845232396
0 IRIDIUM 33 DEB
1 35925U 97051UJ  13287.84496433  .00006162  00000-0  18403-2 0  4198
2 35925 086.3393 116.3237 0027067 228.5559 131.3641 14.42648507232477
0 IRIDIUM 33 DEB
1 35925U 97051UJ  13288.81601185  .00006544  00000-0  19539-2 0  4205
2 35925 086.3393 115.9057 0027065 225.3490 134.5952 14.42665368232619
0 IRIDIUM 33 DEB
1 35925U 97051UJ  13289.23216524  .00006897  00000-0  20590-2 0  4212
2 35925 086.3393 115.7266 0027064 223.9747 135.9598 14.42674873232675
0 IRIDIUM 33 DEB
1 35925U 97051UJ  13290.27255461  .00007123  00000-0  21257-2 0  4226
2 35925 086.3393 115.2787 0027062 220.5391 139.4204 14.42692721232826
0 IRIDIUM 33 DEB
1 35925U 97051UJ  13291.24357045  .00007518  00000-0  22449-2 0  4238
2 35925 086.3286 114.8576 0024453 220.4900 139.4468 14.42711203232968
0 IRIDIUM 33 DEB
1 35925U 97051UJ  13292.83879748  .00007773  00000-0  23183-2 0  4243
2 35925 086.3308 114.1629 0026670 215.2626 144.7592 14.42739120233196
0 IRIDIUM 33 DEB
1 35925U 97051UJ  13293.25492317  .00008152  00000-0  24316-2 0  4255
2 35925 086.3327 113.9848 0025598 212.3727 147.6096 14.42750212233258
0 IRIDIUM 33 DEB
1 35925U 97051UJ  13294.78074227  .00008383  00000-0  24977-2 0  4260
2 35925 086.3350 113.3308 0027351 205.6935 154.3238 14.42778568233475
0 IRIDIUM 33 DEB
1 35925U 97051UJ  13295.82105583  .00008716  00000-0  25965-2 0  4275
2 35925 086.3346 112.8848 0026849 201.4326 158.5797 14.42798790233624
